{
"type": "FeatureCollection",
"name": "l",
"features": [
{ "type": "Feature", "properties": { "FID": "0", "OBJECTID": "1", "LINK": "https://ims.gov.il/he/node/148", "RADIUS": "50", "ENAME": "AVNE ETAN", "NAME": "אבני איתן", "NUM": "20", "X": "271680", "Y": "747090", "LON": "35.7622", "LAT": "32.8174", "VARIABLES": "גשם, טמפ', רוח, לחות", "LOCATION": "קרקע", "ELEVATION": "375", "HEIGHT": "10", "AREA_STAT": "481.457602", "PERIM_STAT": "88.43051", "LIMITS": "בנייה כלשהיא", "Shape_Leng": "313.9525883", "Shape_Area": "7833.326633", "YEARMONTH": "202109" }, "geometry": { "type": "Point", "coordinates": [ 35.76211, 32.81729 ] } },
{ "type": "Feature", "properties": { "FID": "1", "OBJECTID": "2", "LINK": "https://ims.gov.il/he/node/138", "RADIUS": "50", "ENAME": "AYYELET HASHAHAR", "NAME": "איילת השחר", "NUM": "7", "X": "253940", "Y": "769980", "LON": "35.5735", "LAT": "33.0244", "VARIABLES": "גשם, טמפ', לחות", "LOCATION": "קרקע", "ELEVATION": "170", "HEIGHT": "אין", "AREA_STAT": "42.69948", "PERIM_STAT": "26.23222", "LIMITS": "בנייה כלשהיא", "Shape_Leng": "313.9525883", "Shape_Area": "7833.326633", "YEARMONTH": "202109" }, "geometry": { "type": "Point", "coordinates": [ 35.57353, 33.02438 ] } },
{ "type": "Feature", "properties": { "FID": "2", "OBJECTID": "3", "LINK": "https://ims.gov.il/he/node/137", "RADIUS": "50", "ENAME": "ELON", "NAME": "אילון", "NUM": "6", "X": "220660", "Y": "774470", "LON": "35.2173", "LAT": "33.0653", "VARIABLES": "גשם, טמפ', רוח, לחות", "LOCATION": "קרקע", "ELEVATION": "300", "HEIGHT": "10", "AREA_STAT": "151.629761", "PERIM_STAT": "49.370388", "LIMITS": "בנייה כלשהיא", "Shape_Leng": "313.9525883", "Shape_Area": "7833.326633", "YEARMONTH": "202109" }, "geometry": { "type": "Point", "coordinates": [ 35.21733, 33.06541 ] } },
{ "type": "Feature", "properties": { "FID": "3", "OBJECTID": "4", "LINK": "https://ims.gov.il/he/node/241", "RADIUS": "50", "ENAME": "ELAT", "NAME": "אילת", "NUM": "85", "X": "195000", "Y": "385010", "LON": "34.952", "LAT": "29.5526", "VARIABLES": "גשם, טמפ', רוח, לחות, קרינה,לחץ", "LOCATION": "קרקע", "ELEVATION": "22", "HEIGHT": "10", "AREA_STAT": "600", "PERIM_STAT": "99.53", "LIMITS": "בנייה כלשהיא", "Shape_Leng": "313.9525883", "Shape_Area": "7833.326633", "YEARMONTH": "202109" }, "geometry": { "type": "Point", "coordinates": [ 34.9521, 29.55261 ] } },
{ "type": "Feature", "properties": { "FID": "4", "OBJECTID": "5", "LINK": "https://ims.gov.il/he/node/167", "RADIUS": "300", "ENAME": "ITAMAR", "NAME": "איתמר", "NUM": "42", "X": "233320", "Y": "674050", "LON": "35.3513", "LAT": "32.1598", "VARIABLES": "גשם, טמפ', רוח, לחות", "LOCATION": "קרקע", "ELEVATION": "820", "HEIGHT": "10", "AREA_STAT": "78.002214", "PERIM_STAT": "35.677903", "LIMITS": "מבנה בגובה 3 קומות (10 מטר)", "Shape_Leng": "1884.747268", "Shape_Area": "282618.3602", "YEARMONTH": "202109" }, "geometry": { "type": "Point", "coordinates": [ 35.35141, 32.15982 ] } },
{ "type": "Feature", "properties": { "FID": "5", "OBJECTID": "6", "LINK": "https://ims.gov.il/he/node/147", "RADIUS": "100", "ENAME": "AFEQ", "NAME": "אפק", "NUM": "17", "X": "210840", "Y": "750200", "LON": "35.1123", "LAT": "32.8466", "VARIABLES": "גשם, טמפ', רוח, לחות,לחץ", "LOCATION": "קרקע", "ELEVATION": "10", "HEIGHT": "10", "AREA_STAT": "199.614248", "PERIM_STAT": "57.239195", "LIMITS": "מבנה בגובה 3 קומות (10 מטר)", "Shape_Leng": "628.113568", "Shape_Area": "31374.94158", "YEARMONTH": "202109" }, "geometry": { "type": "Point", "coordinates": [ 35.1124, 32.84654 ] } },
{ "type": "Feature", "properties": { "FID": "6", "OBJECTID": "7", "LINK": "https://ims.gov.il/he/node/182", "RADIUS": "300", "ENAME": "ARIEL", "NAME": "אריאל", "NUM": "45", "X": "220110", "Y": "668020", "LON": "35.2114", "LAT": "32.1056", "VARIABLES": "גשם, טמפ', רוח, לחות", "LOCATION": "גג 3 קומות", "ELEVATION": "685", "HEIGHT": "10", "AREA_STAT": "82.870993", "PERIM_STAT": "36.63336", "LIMITS": "מבנה בגובה 3 קומות (10 מטר)", "Shape_Leng": "1884.747268", "Shape_Area": "282618.3602", "YEARMONTH": "202109" }, "geometry": { "type": "Point", "coordinates": [ 35.21137, 32.10552 ] } },
{ "type": "Feature", "properties": { "FID": "7", "OBJECTID": "8", "LINK": "https://ims.gov.il/he/node/187", "RADIUS": "300", "ENAME": "ASHDOD PORT", "NAME": "אשדוד נמל", "NUM": "50", "X": "165800", "Y": "638080", "LON": "34.6377", "LAT": "31.8342", "VARIABLES": "גשם, טמפ', רוח, לחות", "LOCATION": "קרקע (חומה 3.5 מ')", "ELEVATION": "5", "HEIGHT": "10", "AREA_STAT": "425.743123", "PERIM_STAT": "88.020998", "LIMITS": "מבנה בגובה 3 קומות (10 מטר)", "Shape_Leng": "1884.747268", "Shape_Area": "282618.3602", "YEARMONTH": "202109" }, "geometry": { "type": "Point", "coordinates": [ 34.63764, 31.83426 ] } },
{ "type": "Feature", "properties": { "FID": "8", "OBJECTID": "9", "LINK": "https://ims.gov.il/he/node/144", "RADIUS": "300", "ENAME": "ESHHAR", "NAME": "אשחר", "NUM": "13", "X": "228510", "Y": "754430", "LON": "35.3011", "LAT": "32.8846", "VARIABLES": "גשם, טמפ', רוח, לחות", "LOCATION": " גג קומה אחת", "ELEVATION": "370", "HEIGHT": "10", "AREA_STAT": "44.757732", "PERIM_STAT": "26.909846", "LIMITS": "מבנה בגובה 3 קומות (10 מטר)", "Shape_Leng": "1884.747268", "Shape_Area": "282618.3602", "YEARMONTH": "202109" }, "geometry": { "type": "Point", "coordinates": [ 35.30119, 32.88468 ] } },
{ "type": "Feature", "properties": { "FID": "9", "OBJECTID": "10", "LINK": "https://ims.gov.il/he/node/209", "RADIUS": "300", "ENAME": "ASHQELON PORT", "NAME": "אשקלון נמל", "NUM": "64", "X": "154680", "Y": "616550", "LON": "34.5215", "LAT": "31.6394", "VARIABLES": "גשם, טמפ', רוח, לחות", "LOCATION": "קרקע", "ELEVATION": "5", "HEIGHT": "10", "AREA_STAT": "239.705035", "PERIM_STAT": "62.267217", "LIMITS": "מבנה בגובה 3 קומות (10 מטר)", "Shape_Leng": "1884.747268", "Shape_Area": "282618.3602", "YEARMONTH": "202109" }, "geometry": { "type": "Point", "coordinates": [ 34.5216, 31.63953 ] } },
{ "type": "Feature", "properties": { "FID": "10", "OBJECTID": "11", "LINK": " ", "RADIUS": "50", "ENAME": "BEER SHEVA NEW", "NAME": "באר שבע חדש", "NUM": "72", "X": "181367", "Y": "574802", "LON": "34.804509", "LAT": "31.264202", "VARIABLES": "גשם, טמפ', רוח, לחות, לחץ", "LOCATION": "קרקע", "ELEVATION": "302", "HEIGHT": "10", "AREA_STAT": "78", "PERIM_STAT": "44", "LIMITS": "בנייה כלשהיא", "Shape_Leng": "313.9525883", "Shape_Area": "7833.326633", "YEARMONTH": "202109" }, "geometry": { "type": "Point", "coordinates": [ 34.80452, 31.26421 ] } },
{ "type": "Feature", "properties": { "FID": "11", "OBJECTID": "12", "LINK": "https://ims.gov.il/he/node/222", "RADIUS": "150", "ENAME": "BEER SHEVA RAD", "NAME": "באר שבע קרינה", "NUM": "72a", "X": "181339", "Y": "574670", "LON": "34.804175", "LAT": "31.262988", "VARIABLES": "קרינה", "LOCATION": "גג", "ELEVATION": "312", "HEIGHT": " ", "AREA_STAT": "21", "PERIM_STAT": "18", "LIMITS": "מגבלה בכיוונים מזרח דרך דרום עד מערב. מבנה בגובה של יותר מ- 3 קומות (10 מטר)", "Shape_Leng": "942.2729869", "Shape_Area": "70624.40373", "YEARMONTH": "202109" }, "geometry": { "type": "Point", "coordinates": [ 34.80423, 31.26302 ] } },
{ "type": "Feature", "properties": { "FID": "12", "OBJECTID": "13", "LINK": "https://ims.gov.il/he/node/205", "RADIUS": "0", "ENAME": "BEIT JIMAL", "NAME": "בית גימל", "NUM": "60", "X": "197830", "Y": "625830", "LON": "34.9762", "LAT": "31.7248", "VARIABLES": "גשם, טמפ', לחות", "LOCATION": "קרקע", "ELEVATION": "355", "HEIGHT": "אין", "AREA_STAT": "68.086664", "PERIM_STAT": "34.605316", "LIMITS": "אין מגבלה. בתוך מתחם המנזר ללא רוח", "Shape_Leng": "6.275124204", "Shape_Area": "3.12557824", "YEARMONTH": "202109" }, "geometry": { "type": "Point", "coordinates": [ 34.97626, 31.72484 ] } },
{ "type": "Feature", "properties": { "FID": "13", "OBJECTID": "14", "LINK": "https://ims.gov.il/he/node/184", "RADIUS": "50", "ENAME": "BET DAGAN", "NAME": "בית דגן", "NUM": "47", "X": "182550", "Y": "657190", "LON": "34.8138", "LAT": "32.0073", "VARIABLES": "גשם, טמפ',לחות,לחץ", "LOCATION": "קרקע", "ELEVATION": "31", "HEIGHT": " ", "AREA_STAT": "793", "PERIM_STAT": "113", "LIMITS": "בנייה כלשהיא", "Shape_Leng": "313.9525883", "Shape_Area": "7833.326633", "YEARMONTH": "202109" }, "geometry": { "type": "Point", "coordinates": [ 34.81384, 32.00726 ] } },
{ "type": "Feature", "properties": { "FID": "14", "OBJECTID": "15", "LINK": " ", "RADIUS": "150", "ENAME": "BET DAGAN RAD", "NAME": "בית דגן קרינה", "NUM": "47b", "X": "182642", "Y": "657267", "LON": "34.814742", "LAT": "32.00791", "VARIABLES": " קרינה", "LOCATION": "קרקע", "ELEVATION": "29", "HEIGHT": " ", "AREA_STAT": "101", "PERIM_STAT": "41", "LIMITS": "מגבלה בכיוונים מזרח דרך דרום עד מערב. מבנה בגובה 3 קומות (10 מטר)", "Shape_Leng": "942.2729869", "Shape_Area": "70624.40373", "YEARMONTH": "202109" }, "geometry": { "type": "Point", "coordinates": [ 34.81482, 32.00796 ] } },
{ "type": "Feature", "properties": { "FID": "15", "OBJECTID": "16", "LINK": " ", "RADIUS": "300", "ENAME": "BET DAGAN WIND", "NAME": "בית דגן רוח", "NUM": "47a", "X": "182514", "Y": "657164", "LON": "34.81334", "LAT": "32.007008", "VARIABLES": "רוח", "LOCATION": "קרקע", "ELEVATION": "33", "HEIGHT": "20", "AREA_STAT": "164", "PERIM_STAT": "51.34", "LIMITS": "מבנה בגובה 3 קומות (10 מטר)", "Shape_Leng": "1884.747268", "Shape_Area": "282618.3602", "YEARMONTH": "202109" }, "geometry": { "type": "Point", "coordinates": [ 34.81346, 32.00702 ] } },
{ "type": "Feature", "properties": { "FID": "16", "OBJECTID": "17", "LINK": "https://ims.gov.il/he/node/198", "RADIUS": "300", "ENAME": "BET HAARAVA", "NAME": "בית הערבה", "NUM": "53", "X": "247540", "Y": "634760", "LON": "35.501", "LAT": "31.8052", "VARIABLES": "גשם, טמפ', רוח, לחות", "LOCATION": "קרקע", "ELEVATION": "-330", "HEIGHT": "10", "AREA_STAT": "47.255872", "PERIM_STAT": "29.255898", "LIMITS": "מבנה בגובה 3 קומות (10 מטר)", "Shape_Leng": "1884.747268", "Shape_Area": "282618.3602", "YEARMONTH": "202109" }, "geometry": { "type": "Point", "coordinates": [ 35.50101, 31.80524 ] } },
{ "type": "Feature", "properties": { "FID": "17", "OBJECTID": "18", "LINK": "https://ims.gov.il/he/node/146", "RADIUS": "100", "ENAME": "BET ZAYDA", "NAME": "בית ציידא", "NUM": "15", "X": "261180", "Y": "753990", "LON": "35.6504", "LAT": "32.88", "VARIABLES": "גשם, טמפ', רוח, לחות", "LOCATION": "קרקע", "ELEVATION": "-200", "HEIGHT": "10", "AREA_STAT": "91.948159", "PERIM_STAT": "39.285082", "LIMITS": "מבנה בגובה 3 קומות (10 מטר)", "Shape_Leng": "628.113568", "Shape_Area": "31374.94158", "YEARMONTH": "202109" }, "geometry": { "type": "Point", "coordinates": [ 35.6503, 32.87996 ] } },
{ "type": "Feature", "properties": { "FID": "18", "OBJECTID": "19", "LINK": "https://ims.gov.il/he/node/220", "RADIUS": "100", "ENAME": "BESOR FARM", "NAME": "בשור, חווה", "NUM": "71", "X": "141830", "Y": "575830", "LON": "34.3894", "LAT": "31.2716", "VARIABLES": "גשם, טמפ', רוח, לחות, קרינה", "LOCATION": "קרקע", "ELEVATION": "110", "HEIGHT": "10", "AREA_STAT": "299.29902", "PERIM_STAT": "78.591543", "LIMITS": "מבנה בגובה 3 קומות (10 מטר)", "Shape_Leng": "628.113568", "Shape_Area": "31374.94158", "YEARMONTH": "202109" }, "geometry": { "type": "Point", "coordinates": [ 34.38934, 31.27152 ] } },
{ "type": "Feature", "properties": { "FID": "19", "OBJECTID": "20", "LINK": "https://ims.gov.il/he/node/185", "RADIUS": "50", "ENAME": "GILGAL", "NAME": "גלגל", "NUM": "48", "X": "242740", "Y": "656040", "LON": "35.4509", "LAT": "31.9973", "VARIABLES": "גשם, טמפ', רוח, לחות", "LOCATION": "קרקע", "ELEVATION": "-255", "HEIGHT": "10", "AREA_STAT": "354.952713", "PERIM_STAT": "85.195695", "LIMITS": "בנייה כלשהיא", "Shape_Leng": "313.9525883", "Shape_Area": "7833.326633", "YEARMONTH": "202109" }, "geometry": { "type": "Point", "coordinates": [ 35.45084, 31.99725 ] } },
{ "type": "Feature", "properties": { "FID": "20", "OBJECTID": "21", "LINK": "https://ims.gov.il/he/node/163", "RADIUS": "50", "ENAME": "GALED", "NAME": "גלעד", "NUM": "34", "X": "207060", "Y": "718020", "LON": "35.0725", "LAT": "32.5564", "VARIABLES": "גשם, טמפ', לחות", "LOCATION": "קרקע", "ELEVATION": "180", "HEIGHT": "אין", "AREA_STAT": "77.963721", "PERIM_STAT": "35.345144", "LIMITS": "בנייה כלשהיא", "Shape_Leng": "313.9525883", "Shape_Area": "7833.326633", "YEARMONTH": "202109" }, "geometry": { "type": "Point", "coordinates": [ 35.07245, 32.55634 ] } },
{ "type": "Feature", "properties": { "FID": "21", "OBJECTID": "22", "LINK": "https://ims.gov.il/he/node/143", "RADIUS": "100", "ENAME": "GAMLA", "NAME": "גמלא", "NUM": "12", "X": "270380", "Y": "756840", "LON": "35.7487", "LAT": "32.9052", "VARIABLES": "גשם, טמפ', רוח, לחות", "LOCATION": "קרקע", "ELEVATION": "405", "HEIGHT": "10", "AREA_STAT": "48.185811", "PERIM_STAT": "28.316471", "LIMITS": "מבנה בגובה 3 קומות (10 מטר)", "Shape_Leng": "628.113568", "Shape_Area": "31374.94158", "YEARMONTH": "202109" }, "geometry": { "type": "Point", "coordinates": [ 35.74876, 32.90526 ] } },
{ "type": "Feature", "properties": { "FID": "22", "OBJECTID": "23", "LINK": "https://ims.gov.il/he/node/214", "RADIUS": "50", "ENAME": "GAT", "NAME": "גת", "NUM": "65", "X": "180270", "Y": "615390", "LON": "34.7913", "LAT": "31.6303", "VARIABLES": "גשם, טמפ', לחות", "LOCATION": "קרקע", "ELEVATION": "140", "HEIGHT": "אין", "AREA_STAT": "53.986923", "PERIM_STAT": "30.111652", "LIMITS": "בנייה כלשהיא", "Shape_Leng": "313.9525883", "Shape_Area": "7833.326633", "YEARMONTH": "202109" }, "geometry": { "type": "Point", "coordinates": [ 34.7914, 31.63023 ] } },
{ "type": "Feature", "properties": { "FID": "23", "OBJECTID": "24", "LINK": "https://ims.gov.il/he/node/216", "RADIUS": "100", "ENAME": "DOROT", "NAME": "דורות", "NUM": "67", "X": "166600", "Y": "601390", "LON": "34.648", "LAT": "31.5036", "VARIABLES": "גשם, טמפ', רוח, לחות, קרינה", "LOCATION": "קרקע", "ELEVATION": "115", "HEIGHT": "10", "AREA_STAT": "111.190957", "PERIM_STAT": "42.655032", "LIMITS": "מבנה בגובה 3 קומות (10 מטר)", "Shape_Leng": "628.113568", "Shape_Area": "31374.94158", "YEARMONTH": "202109" }, "geometry": { "type": "Point", "coordinates": [ 34.64806, 31.50342 ] } },
{ "type": "Feature", "properties": { "FID": "24", "OBJECTID": "25", "LINK": "https://ims.gov.il/he/node/399", "RADIUS": "100", "ENAME": "DEIR HANNA", "NAME": "דיר חנא", "NUM": "16", "X": "235330", "Y": "752000", "LON": "35.3741", "LAT": "32.8621", "VARIABLES": "גשם, טמפ', רוח, לחות", "LOCATION": " גג 2 קומות", "ELEVATION": "280", "HEIGHT": "10", "AREA_STAT": "110.300502", "PERIM_STAT": "42.035174", "LIMITS": "מבנה בגובה 3 קומות (10 מטר)", "Shape_Leng": "628.113568", "Shape_Area": "31374.94158", "YEARMONTH": "202109" }, "geometry": { "type": "Point", "coordinates": [ 35.37403, 32.86269 ] } },
{ "type": "Feature", "properties": { "FID": "25", "OBJECTID": "26", "LINK": "https://ims.gov.il/he/node/114", "RADIUS": "300", "ENAME": "DAFNA", "NAME": "דפנה", "NUM": "2", "X": "259440", "Y": "792280", "LON": "35.6333", "LAT": "33.2252", "VARIABLES": "גשם, טמפ', רוח, לחות", "LOCATION": "קרקע", "ELEVATION": "130", "HEIGHT": "10", "AREA_STAT": "213.596295", "PERIM_STAT": "62.696417", "LIMITS": "מבנה בגובה 3 קומות (10 מטר)", "Shape_Leng": "1884.747268", "Shape_Area": "282618.3602", "YEARMONTH": "202109" }, "geometry": { "type": "Point", "coordinates": [ 35.63337, 33.22526 ] } },
{ "type": "Feature", "properties": { "FID": "26", "OBJECTID": "27", "LINK": "https://ims.gov.il/he/node/181", "RADIUS": "300", "ENAME": "HAKFAR HAYAROK", "NAME": "הכפר הירוק", "NUM": "43", "X": "184350", "Y": "670790", "LON": "34.8324", "LAT": "32.13", "VARIABLES": "גשם, טמפ', לחות, רוח", "LOCATION": "גג 2 קומות (תורן גבוה)", "ELEVATION": "65", "HEIGHT": "65", "AREA_STAT": "163.24729", "PERIM_STAT": "51.367599", "LIMITS": "מבנה בגובה 5 קומות (15 מטר)", "Shape_Leng": "1884.747268", "Shape_Area": "282618.3602", "YEARMONTH": "202109" }, "geometry": { "type": "Point", "coordinates": [ 34.8324, 32.12996 ] } },
{ "type": "Feature", "properties": { "FID": "27", "OBJECTID": "28", "LINK": "https://ims.gov.il/he/node/186", "RADIUS": "100", "ENAME": "HAR HARASHA", "NAME": "הר חרשה", "NUM": "49", "X": "214290", "Y": "650210", "LON": "35.1499", "LAT": "31.9449", "VARIABLES": "גשם, טמפ', רוח, לחות", "LOCATION": "קרקע", "ELEVATION": "770", "HEIGHT": "10", "AREA_STAT": "73.789995", "PERIM_STAT": "34.737054", "LIMITS": "מבנה בגובה 3 קומות (10 מטר)", "Shape_Leng": "628.113568", "Shape_Area": "31374.94158", "YEARMONTH": "202109" }, "geometry": { "type": "Point", "coordinates": [ 35.1498, 31.9449 ] } },
{ "type": "Feature", "properties": { "FID": "28", "OBJECTID": "29", "LINK": "https://ims.gov.il/he/node/162", "RADIUS": "50", "ENAME": "ZIKHRON YAAQOV", "NAME": "זכרון יעקב", "NUM": "33", "X": "195990", "Y": "719810", "LON": "34.9546", "LAT": "32.5724", "VARIABLES": "גשם, טמפ', רוח, לחות", "LOCATION": " גג קומה אחת", "ELEVATION": "175", "HEIGHT": "10", "AREA_STAT": "35.115694", "PERIM_STAT": "26.683877", "LIMITS": "בנייה כלשהיא", "Shape_Leng": "313.9525883", "Shape_Area": "7833.326633", "YEARMONTH": "202109" }, "geometry": { "type": "Point", "coordinates": [ 34.95454, 32.5723 ] } },
{ "type": "Feature", "properties": { "FID": "29", "OBJECTID": "30", "LINK": "https://ims.gov.il/he/node/168", "RADIUS": "300", "ENAME": "HADERA PORT", "NAME": "חדרה נמל", "NUM": "37", "X": "189090", "Y": "708830", "LON": "34.8815", "LAT": "32.4732", "VARIABLES": "גשם, טמפ', רוח, לחות", "LOCATION": "קרקע", "ELEVATION": "5", "HEIGHT": "10", "AREA_STAT": "159.933532", "PERIM_STAT": "50.65135", "LIMITS": "מבנה בגובה 3 קומות (10 מטר)", "Shape_Leng": "1884.747268", "Shape_Area": "282618.3602", "YEARMONTH": "202109" }, "geometry": { "type": "Point", "coordinates": [ 34.88142, 32.47312 ] } },
{ "type": "Feature", "properties": { "FID": "30", "OBJECTID": "31", "LINK": "https://ims.gov.il/he/node/169", "RADIUS": "300", "ENAME": "EDEN FARM", "NAME": "חוות עדן", "NUM": "38", "X": "246190", "Y": "708240", "LON": "35.4888", "LAT": "32.4679", "VARIABLES": "גשם, טמפ', רוח, לחות, קרינה", "LOCATION": "קרקע", "ELEVATION": "-120", "HEIGHT": "10", "AREA_STAT": "214.205304", "PERIM_STAT": "61.988158", "LIMITS": "מבנה בגובה 3 קומות (10 מטר)", "Shape_Leng": "1884.747268", "Shape_Area": "282618.3602", "YEARMONTH": "202109" }, "geometry": { "type": "Point", "coordinates": [ 35.48881, 32.4679 ] } },
{ "type": "Feature", "properties": { "FID": "31", "OBJECTID": "32", "LINK": "https://ims.gov.il/he/node/152", "RADIUS": "100", "ENAME": "HAIFA UNIVERSITY", "NAME": "חיפה אוניברסיטה", "NUM": "23", "X": "202240", "Y": "740730", "LON": "35.0208", "LAT": "32.7611", "VARIABLES": "גשם, טמפ', רוח, לחות", "LOCATION": " גג 3 קומות ויותר", "ELEVATION": "475", "HEIGHT": "10", "AREA_STAT": "56.270493", "PERIM_STAT": "30.144166", "LIMITS": "מבנה בגובה 3 קומות (10 מטר)", "Shape_Leng": "628.113568", "Shape_Area": "31374.94158", "YEARMONTH": "202109" }, "geometry": { "type": "Point", "coordinates": [ 35.02071, 32.76105 ] } },
{ "type": "Feature", "properties": { "FID": "32", "OBJECTID": "33", "LINK": "https://ims.gov.il/he/node/149", "RADIUS": "300", "ENAME": "HAIFA REFINERIES", "NAME": "חיפה בז\"ן", "NUM": "21", "X": "205450", "Y": "745420", "LON": "35.0548", "LAT": "32.8034", "VARIABLES": "גשם, טמפ', רוח, לחות", "LOCATION": "קרקע (תורן גבוה)", "ELEVATION": "5", "HEIGHT": "60", "AREA_STAT": "343.400273", "PERIM_STAT": "74.301762", "LIMITS": "מבנה בגובה 5 קומות (15 מטר)", "Shape_Leng": "1884.747268", "Shape_Area": "282618.3602", "YEARMONTH": "202109" }, "geometry": { "type": "Point", "coordinates": [ 35.0549, 32.80339 ] } },
{ "type": "Feature", "properties": { "FID": "33", "OBJECTID": "34", "LINK": "https://ims.gov.il/he/node/150", "RADIUS": "100", "ENAME": "HAIFA TECHNION", "NAME": "חיפה טכניון", "NUM": "22", "X": "202390", "Y": "742120", "LON": "35.0223", "LAT": "32.7736", "VARIABLES": "גשם, טמפ', רוח, לחות, קרינה", "LOCATION": "גג 5 קומות", "ELEVATION": "235", "HEIGHT": "10", "AREA_STAT": "112.505167", "PERIM_STAT": "46.617257", "LIMITS": "מבנה בגובה 3 קומות (10 מטר)", "Shape_Leng": "628.113568", "Shape_Area": "31374.94158", "YEARMONTH": "202109" }, "geometry": { "type": "Point", "coordinates": [ 35.02229, 32.77359 ] } },
{ "type": "Feature", "properties": { "FID": "34", "OBJECTID": "35", "LINK": "https://ims.gov.il/he/node/199", "RADIUS": "100", "ENAME": "HAFEZ HAYYIM", "NAME": "חפץ חיים", "NUM": "54", "X": "181630", "Y": "633200", "LON": "34.805", "LAT": "31.791", "VARIABLES": "גשם, טמפ', רוח, לחות", "LOCATION": "קרקע", "ELEVATION": "80", "HEIGHT": "10", "AREA_STAT": "89.670024", "PERIM_STAT": "38.366226", "LIMITS": "מבנה בגובה 3 קומות (10 מטר)", "Shape_Leng": "628.113568", "Shape_Area": "31374.94158", "YEARMONTH": "202109" }, "geometry": { "type": "Point", "coordinates": [ 34.80504, 31.79089 ] } },
{ "type": "Feature", "properties": { "FID": "35", "OBJECTID": "36", "LINK": "https://ims.gov.il/he/node/238", "RADIUS": "100", "ENAME": "HAZEVA", "NAME": "חצבה", "NUM": "80", "X": "222760", "Y": "520910", "LON": "35.2389", "LAT": "30.7787", "VARIABLES": "גשם, טמפ', רוח, לחות", "LOCATION": "קרקע", "ELEVATION": "-135", "HEIGHT": "10", "AREA_STAT": "219.825176", "PERIM_STAT": "64.336982", "LIMITS": "מבנה בגובה 3 קומות (10 מטר)", "Shape_Leng": "628.113568", "Shape_Area": "31374.94158", "YEARMONTH": "202109" }, "geometry": { "type": "Point", "coordinates": [ 35.23895, 30.77875 ] } },
{ "type": "Feature", "properties": { "FID": "36", "OBJECTID": "37", "LINK": "https://ims.gov.il/he/node/141", "RADIUS": "50", "ENAME": "HARASHIM", "NAME": "חרשים", "NUM": "10", "X": "231070", "Y": "762330", "LON": "35.3287", "LAT": "32.956", "VARIABLES": "גשם, טמפ',לחות", "LOCATION": "גג קומה אחת", "ELEVATION": "830", "HEIGHT": "אין", "AREA_STAT": "20.333659", "PERIM_STAT": "18.188031", "LIMITS": "בנייה כלשהיא", "Shape_Leng": "313.9525883", "Shape_Area": "7833.326633", "YEARMONTH": "202109" }, "geometry": { "type": "Point", "coordinates": [ 35.32865, 32.95589 ] } },
{ "type": "Feature", "properties": { "FID": "37", "OBJECTID": "38", "LINK": "https://ims.gov.il/he/node/156", "RADIUS": "300", "ENAME": "YAVNEEL", "NAME": "יבנאל", "NUM": "27", "X": "248110", "Y": "733730", "LON": "35.5101", "LAT": "32.6978", "VARIABLES": "גשם, טמפ', רוח, לחות", "LOCATION": "קרקע", "ELEVATION": "0", "HEIGHT": "10", "AREA_STAT": "90.319581", "PERIM_STAT": "38.025921", "LIMITS": "מבנה בגובה 3 קומות (10 מטר)", "Shape_Leng": "1884.747268", "Shape_Area": "282618.3602", "YEARMONTH": "202109" }, "geometry": { "type": "Point", "coordinates": [ 35.51001, 32.69769 ] } },
{ "type": "Feature", "properties": { "FID": "38", "OBJECTID": "39", "LINK": "https://ims.gov.il/he/node/240", "RADIUS": "100", "ENAME": "YOTVATA", "NAME": "יטבתה", "NUM": "84", "X": "207160", "Y": "421850", "LON": "35.0771", "LAT": "29.8851", "VARIABLES": "גשם, טמפ', רוח, לחות, קרינה", "LOCATION": "קרקע", "ELEVATION": "70", "HEIGHT": "10", "AREA_STAT": "335.018603", "PERIM_STAT": "75.071872", "LIMITS": "מבנה בגובה 3 קומות (10 מטר)", "Shape_Leng": "628.113568", "Shape_Area": "31374.94158", "YEARMONTH": "202109" }, "geometry": { "type": "Point", "coordinates": [ 35.07715, 29.88513 ] } },
{ "type": "Feature", "properties": { "FID": "39", "OBJECTID": "40", "LINK": "https://ims.gov.il/he/node/203", "RADIUS": "300", "ENAME": "JERUSALEM GIVAT RAM", "NAME": "ירושלים גבעת רם", "NUM": "58", "X": "218757", "Y": "630860", "LON": "35.1973", "LAT": "31.7704", "VARIABLES": "גשם, , רוח, קרינה", "LOCATION": "גג 4 קומות", "ELEVATION": "770", "HEIGHT": "10", "AREA_STAT": "52.243619", "PERIM_STAT": "35.400589", "LIMITS": "מבנה בגובה 3 קומות (10 מטר)", "Shape_Leng": "1884.747268", "Shape_Area": "282618.3602", "YEARMONTH": "202109" }, "geometry": { "type": "Point", "coordinates": [ 35.19706, 31.77041 ] } },
{ "type": "Feature", "properties": { "FID": "40", "OBJECTID": "41", "LINK": " ", "RADIUS": "100", "ENAME": "JERUSALEM GIVAT RAM TDRH", "NAME": "ירושלים גבעת רם סוכה", "NUM": "58a", "X": "218744", "Y": "630855", "LON": "35.19692", "LAT": "31.770381", "VARIABLES": "טמפ', לחות,", "LOCATION": "גג 3 קומות", "ELEVATION": "770", "HEIGHT": " ", "AREA_STAT": "13", "PERIM_STAT": "14", "LIMITS": "מבנה בגובה 3 קומות (10 מטר)", "Shape_Leng": "628.113568", "Shape_Area": "31374.94158", "YEARMONTH": "202109" }, "geometry": { "type": "Point", "coordinates": [ 35.19692, 31.77036 ] } },
{ "type": "Feature", "properties": { "FID": "41", "OBJECTID": "42", "LINK": "https://ims.gov.il/he/node/201", "RADIUS": "100", "ENAME": "JERUSALEM CENTRE", "NAME": "ירושלים מרכז", "NUM": "56", "X": "221080", "Y": "631980", "LON": "35.2217", "LAT": "31.7806", "VARIABLES": "גשם, טמפ', רוח, לחות,לחץ", "LOCATION": "גג 5 קומות (גג 6 קומות)", "ELEVATION": "810", "HEIGHT": "10", "AREA_STAT": "192", "PERIM_STAT": "59", "LIMITS": "מבנה בגובה 3 קומות (10 מטר)", "Shape_Leng": "628.113568", "Shape_Area": "31374.94158", "YEARMONTH": "202109" }, "geometry": { "type": "Point", "coordinates": [ 35.22158, 31.78051 ] } },
{ "type": "Feature", "properties": { "FID": "42", "OBJECTID": "43", "LINK": "https://ims.gov.il/he/node/134", "RADIUS": "50", "ENAME": "KEFAR BLUM", "NAME": "כפר בלום", "NUM": "3", "X": "257590", "Y": "786320", "LON": "35.6133", "LAT": "33.1716", "VARIABLES": "גשם, טמפ', לחות", "LOCATION": "קרקע", "ELEVATION": "75", "HEIGHT": " ", "AREA_STAT": "86.264782", "PERIM_STAT": "37.641478", "LIMITS": "בנייה כלשהיא", "Shape_Leng": "313.9525883", "Shape_Area": "7833.326633", "YEARMONTH": "202109" }, "geometry": { "type": "Point", "coordinates": [ 35.61328, 33.17159 ] } },
{ "type": "Feature", "properties": { "FID": "43", "OBJECTID": "44", "LINK": " ", "RADIUS": "50", "ENAME": "KEFAR BLUM WIND", "NAME": "כפר בלום רוח", "NUM": "3a", "X": "257605", "Y": "786345", "LON": "35.6134", "LAT": "33.1718", "VARIABLES": "רוח", "LOCATION": "על גג מקלט", "ELEVATION": "75", "HEIGHT": "10", "AREA_STAT": "87", "PERIM_STAT": "37", "LIMITS": "בנייה כלשהיא", "Shape_Leng": "313.9525883", "Shape_Area": "7833.326633", "YEARMONTH": "202109" }, "geometry": { "type": "Point", "coordinates": [ 35.61344, 33.17181 ] } },
{ "type": "Feature", "properties": { "FID": "44", "OBJECTID": "45", "LINK": "https://ims.gov.il/he/node/113", "RADIUS": "300", "ENAME": "KEFAR GILADI", "NAME": "כפר גלעדי", "NUM": "1", "X": "253490", "Y": "793950", "LON": "35.5696", "LAT": "33.2404", "VARIABLES": "גשם, טמפ', רוח, לחות", "LOCATION": "קרקע", "ELEVATION": "365", "HEIGHT": "10", "AREA_STAT": "222.675414", "PERIM_STAT": "62.668591", "LIMITS": "מבנה בגובה 3 קומות (10 מטר)", "Shape_Leng": "1884.747268", "Shape_Area": "282618.3602", "YEARMONTH": "202109" }, "geometry": { "type": "Point", "coordinates": [ 35.56961, 33.24052 ] } },
{ "type": "Feature", "properties": { "FID": "45", "OBJECTID": "46", "LINK": "https://ims.gov.il/he/node/145", "RADIUS": "300", "ENAME": "KEFAR NAHUM", "NAME": "כפר נחום", "NUM": "14", "X": "254520", "Y": "754360", "LON": "35.5792", "LAT": "32.8835", "VARIABLES": "גשם, טמפ', רוח, לחות,לחץ", "LOCATION": "קרקע", "ELEVATION": "-200", "HEIGHT": "10", "AREA_STAT": "40.596482", "PERIM_STAT": "25.76749", "LIMITS": "מבנה בגובה 3 קומות (10 מטר)", "Shape_Leng": "1884.747268", "Shape_Area": "282618.3602", "YEARMONTH": "202109" }, "geometry": { "type": "Point", "coordinates": [ 35.57914, 32.88353 ] } },
{ "type": "Feature", "properties": { "FID": "46", "OBJECTID": "47", "LINK": "https://ims.gov.il/he/node/218", "RADIUS": "50", "ENAME": "LAHAV", "NAME": "להב", "NUM": "69", "X": "187910", "Y": "587750", "LON": "34.8729", "LAT": "31.3812", "VARIABLES": "גשם, טמפ', לחות", "LOCATION": "קרקע", "ELEVATION": "460", "HEIGHT": "אין", "AREA_STAT": "63.908619", "PERIM_STAT": "32.992736", "LIMITS": "בנייה כלשהיא", "Shape_Leng": "313.9525883", "Shape_Area": "7833.326633", "YEARMONTH": "202109" }, "geometry": { "type": "Point", "coordinates": [ 34.87281, 31.38118 ] } },
{ "type": "Feature", "properties": { "FID": "47", "OBJECTID": "48", "LINK": "https://ims.gov.il/he/node/157", "RADIUS": "50", "ENAME": "MASSADA", "NAME": "מסדה", "NUM": "28", "X": "256610", "Y": "732150", "LON": "35.6008", "LAT": "32.6833", "VARIABLES": "גשם, טמפ', לחות", "LOCATION": "קרקע", "ELEVATION": "-200", "HEIGHT": "אין", "AREA_STAT": "224.704571", "PERIM_STAT": "61.651503", "LIMITS": "בנייה כלשהיא", "Shape_Leng": "313.9525883", "Shape_Area": "7833.326633", "YEARMONTH": "202109" }, "geometry": { "type": "Point", "coordinates": [ 35.60059, 32.68319 ] } },
{ "type": "Feature", "properties": { "FID": "48", "OBJECTID": "49", "LINK": "https://ims.gov.il/he/node/202", "RADIUS": "100", "ENAME": "MAALE ADUMMIM", "NAME": "מעלה אדומים", "NUM": "57", "X": "228130", "Y": "631250", "LON": "35.2961", "LAT": "31.774", "VARIABLES": "גשם, טמפ', רוח, לחות", "LOCATION": "גג 3 קומות", "ELEVATION": "490", "HEIGHT": "10", "AREA_STAT": "35.571157", "PERIM_STAT": "23.937366", "LIMITS": "מבנה בגובה 3 קומות (10 מטר)", "Shape_Leng": "628.113568", "Shape_Area": "31374.94158", "YEARMONTH": "202109" }, "geometry": { "type": "Point", "coordinates": [ 35.29601, 31.77389 ] } },
{ "type": "Feature", "properties": { "FID": "49", "OBJECTID": "50", "LINK": "https://ims.gov.il/he/node/166", "RADIUS": "300", "ENAME": "MAALE GILBOA", "NAME": "מעלה גלבוע", "NUM": "36", "X": "239230", "Y": "709670", "LON": "35.415", "LAT": "32.481", "VARIABLES": "גשם, טמפ', רוח, לחות", "LOCATION": "קרקע", "ELEVATION": "495", "HEIGHT": "10", "AREA_STAT": "114.170931", "PERIM_STAT": "47.255484", "LIMITS": "מבנה בגובה 3 קומות (10 מטר)", "Shape_Leng": "1884.747268", "Shape_Area": "282618.3602", "YEARMONTH": "202109" }, "geometry": { "type": "Point", "coordinates": [ 35.4148, 32.48094 ] } },
{ "type": "Feature", "properties": { "FID": "50", "OBJECTID": "51", "LINK": "https://ims.gov.il/he/node/215", "RADIUS": "300", "ENAME": "METZOKE DRAGOT", "NAME": "מצוקי דרגות", "NUM": "66", "X": "237230", "Y": "610660", "LON": "35.3916", "LAT": "31.5881", "VARIABLES": "גשם, טמפ', רוח, לחות", "LOCATION": "קרקע", "ELEVATION": "20", "HEIGHT": "10", "AREA_STAT": "105.416538", "PERIM_STAT": "43.238142", "LIMITS": "מבנה בגובה 3 קומות (10 מטר)", "Shape_Leng": "1884.747268", "Shape_Area": "282618.3602", "YEARMONTH": "202109" }, "geometry": { "type": "Point", "coordinates": [ 35.3917, 31.5881 ] } },
{ "type": "Feature", "properties": { "FID": "51", "OBJECTID": "52", "LINK": "https://ims.gov.il/he/node/236", "RADIUS": "50", "ENAME": "MIZPE RAMON", "NAME": "מצפה רמון", "NUM": "81", "X": "181100", "Y": "502260", "LON": "34.8046", "LAT": "30.6101", "VARIABLES": "גשם, טמפ', רוח, לחות", "LOCATION": "קרקע", "ELEVATION": "845", "HEIGHT": "10", "AREA_STAT": "36.157342", "PERIM_STAT": "24.760525", "LIMITS": "בנייה כלשהיא", "Shape_Leng": "313.9525883", "Shape_Area": "7833.326633", "YEARMONTH": "202109" }, "geometry": { "type": "Point", "coordinates": [ 34.80445, 30.60992 ] } },
{ "type": "Feature", "properties": { "FID": "52", "OBJECTID": "53", "LINK": "https://ims.gov.il/he/node/135", "RADIUS": "300", "ENAME": "MEROM GOLAN PICMAN", "NAME": "מרום גולן פיכמן", "NUM": "4", "X": "275450", "Y": "781650", "LON": "35.8045", "LAT": "33.1288", "VARIABLES": "גשם, טמפ', רוח, לחות, קרינה", "LOCATION": "קרקע", "ELEVATION": "945", "HEIGHT": "10", "AREA_STAT": "150.528814", "PERIM_STAT": "49.118515", "LIMITS": "מבנה בגובה 3 קומות (10 מטר)", "Shape_Leng": "1884.747268", "Shape_Area": "282618.3602", "YEARMONTH": "202109" }, "geometry": { "type": "Point", "coordinates": [ 35.80446, 33.12871 ] } },
{ "type": "Feature", "properties": { "FID": "53", "OBJECTID": "54", "LINK": "https://ims.gov.il/he/node/242", "RADIUS": "300", "ENAME": "NEOT SMADAR", "NAME": "נאות סמדר", "NUM": "83", "X": "201990", "Y": "439900", "LON": "35.0233", "LAT": "30.048", "VARIABLES": "גשם, טמפ', רוח, לחות", "LOCATION": "קרקע", "ELEVATION": "400", "HEIGHT": "10", "AREA_STAT": "105.342432", "PERIM_STAT": "41.674254", "LIMITS": "מבנה בגובה 3 קומות (10 מטר)", "Shape_Leng": "1884.747268", "Shape_Area": "282618.3602", "YEARMONTH": "202109" }, "geometry": { "type": "Point", "coordinates": [ 35.02333, 30.0479 ] } },
{ "type": "Feature", "properties": { "FID": "54", "OBJECTID": "55", "LINK": "https://ims.gov.il/he/node/221", "RADIUS": "50", "ENAME": "NEVATIM", "NAME": "נבטים", "NUM": "74", "X": "192600", "Y": "568200", "LON": "34.9227", "LAT": "31.205", "VARIABLES": "גשם, טמפ', רוח, לחות", "LOCATION": "קרקע", "ELEVATION": "350", "HEIGHT": "10", "AREA_STAT": "115.464976", "PERIM_STAT": "45.719144", "LIMITS": "בנייה כלשהיא", "Shape_Leng": "313.9525883", "Shape_Area": "7833.326633", "YEARMONTH": "202109" }, "geometry": { "type": "Point", "coordinates": [ 34.92263, 31.20498 ] } },
{ "type": "Feature", "properties": { "FID": "55", "OBJECTID": "56", "LINK": "https://ims.gov.il/he/node/208", "RADIUS": "300", "ENAME": "NEGBA", "NAME": "נגבה", "NUM": "63", "X": "169690", "Y": "618560", "LON": "34.6798", "LAT": "31.6585", "VARIABLES": "גשם, טמפ', רוח, לחות, קרינה", "LOCATION": "קרקע", "ELEVATION": "95", "HEIGHT": "10", "AREA_STAT": "95.296446", "PERIM_STAT": "38.031571", "LIMITS": "מבנה בגובה 3 קומות (10 מטר)", "Shape_Leng": "1884.747268", "Shape_Area": "282618.3602", "YEARMONTH": "202109" }, "geometry": { "type": "Point", "coordinates": [ 34.67972, 31.6584 ] } },
{ "type": "Feature", "properties": { "FID": "56", "OBJECTID": "57", "LINK": "https://ims.gov.il/he/node/153", "RADIUS": "50", "ENAME": "NEWE YAAR", "NAME": "נווה יער", "NUM": "24", "X": "217010", "Y": "734820", "LON": "35.1784", "LAT": "32.7078", "VARIABLES": "גשם, טמפ', לחות", "LOCATION": "קרקע", "ELEVATION": "115", "HEIGHT": " ", "AREA_STAT": "51.407413", "PERIM_STAT": "28.873248", "LIMITS": "בנייה כלשהיא", "Shape_Leng": "313.9525883", "Shape_Area": "7833.326633", "YEARMONTH": "202109" }, "geometry": { "type": "Point", "coordinates": [ 35.17835, 32.70789 ] } },
{ "type": "Feature", "properties": { "FID": "57", "OBJECTID": "58", "LINK": " ", "RADIUS": "100", "ENAME": "NEWE YAAR WIND", "NAME": "נווה יער רוח", "NUM": "24a", "X": "217015", "Y": "734847", "LON": "35.178421", "LAT": "32.708122", "VARIABLES": " רוח", "LOCATION": " גג 2 קומות", "ELEVATION": "115", "HEIGHT": "10", "AREA_STAT": "32.497719", "PERIM_STAT": "24", "LIMITS": "מבנה בגובה 3 קומות (10 מטר)", "Shape_Leng": "628.113568", "Shape_Area": "31374.94158", "YEARMONTH": "202109" }, "geometry": { "type": "Point", "coordinates": [ 35.1784, 32.70814 ] } },
{ "type": "Feature", "properties": { "FID": "58", "OBJECTID": "59", "LINK": "https://ims.gov.il/he/node/188", "RADIUS": "100", "ENAME": "NAHSHON", "NAME": "נחשון", "NUM": "51", "X": "196460", "Y": "637940", "LON": "34.9616", "LAT": "31.8341", "VARIABLES": "גשם, טמפ', רוח, לחות", "LOCATION": "קרקע", "ELEVATION": "180", "HEIGHT": "10", "AREA_STAT": "105.980687", "PERIM_STAT": "43.709015", "LIMITS": "מבנה בגובה 3 קומות (10 מטר)", "Shape_Leng": "628.113568", "Shape_Area": "31374.94158", "YEARMONTH": "202109" }, "geometry": { "type": "Point", "coordinates": [ 34.96152, 31.83403 ] } },
{ "type": "Feature", "properties": { "FID": "59", "OBJECTID": "60", "LINK": "https://ims.gov.il/he/node/204", "RADIUS": "100", "ENAME": "NIZZAN", "NAME": "ניצן", "NUM": "59", "X": "165470", "Y": "626720", "LON": "34.6348", "LAT": "31.7319", "VARIABLES": "גשם, טמפ', רוח, לחות", "LOCATION": "קרקע", "ELEVATION": "30", "HEIGHT": "10", "AREA_STAT": "427.820257", "PERIM_STAT": "86.985065", "LIMITS": "מבנה בגובה 3 קומות (10 מטר)", "Shape_Leng": "628.113568", "Shape_Area": "31374.94158", "YEARMONTH": "202109" }, "geometry": { "type": "Point", "coordinates": [ 34.63478, 31.7318 ] } },
{ "type": "Feature", "properties": { "FID": "60", "OBJECTID": "61", "LINK": "https://ims.gov.il/he/node/206", "RADIUS": "300", "ENAME": "NETIV HALAMED HE", "NAME": "נתיב הל\"ה", "NUM": "61", "X": "197640", "Y": "621940", "LON": "34.9744", "LAT": "31.6898", "VARIABLES": "גשם, טמפ', רוח, לחות", "LOCATION": "קרקע", "ELEVATION": "275", "HEIGHT": "10", "AREA_STAT": "192.283254", "PERIM_STAT": "55.644726", "LIMITS": "מבנה בגובה 3 קומות (10 מטר)", "Shape_Leng": "1884.747268", "Shape_Area": "282618.3602", "YEARMONTH": "202109" }, "geometry": { "type": "Point", "coordinates": [ 34.97434, 31.68976 ] } },
{ "type": "Feature", "properties": { "FID": "61", "OBJECTID": "62", "LINK": "https://ims.gov.il/he/node/225", "RADIUS": "300", "ENAME": "SEDOM", "NAME": "סדום", "NUM": "76", "X": "237360", "Y": "548850", "LON": "35.3919", "LAT": "31.0306", "VARIABLES": "גשם, טמפ', רוח, לחות, קרינה,לחץ", "LOCATION": "קרקע", "ELEVATION": "-388", "HEIGHT": "10", "AREA_STAT": "374.89328", "PERIM_STAT": "77.866898", "LIMITS": "מבנה בגובה 3 קומות (10 מטר)", "Shape_Leng": "1884.747268", "Shape_Area": "282618.3602", "YEARMONTH": "202109" }, "geometry": { "type": "Point", "coordinates": [ 35.39196, 31.03063 ] } },
{ "type": "Feature", "properties": { "FID": "62", "OBJECTID": "63", "LINK": "https://ims.gov.il/he/node/235", "RADIUS": "300", "ENAME": "AVDAT", "NAME": "עבדת", "NUM": "79", "X": "177980", "Y": "521980", "LON": "34.7712", "LAT": "30.7877", "VARIABLES": "גשם, טמפ', רוח, לחות", "LOCATION": "קרקע", "ELEVATION": "555", "HEIGHT": "10", "AREA_STAT": "100.819669", "PERIM_STAT": "42.471761", "LIMITS": "מבנה בגובה 3 קומות (10 מטר)", "Shape_Leng": "1884.747268", "Shape_Area": "282618.3602", "YEARMONTH": "202109" }, "geometry": { "type": "Point", "coordinates": [ 34.77112, 30.78768 ] } },
{ "type": "Feature", "properties": { "FID": "63", "OBJECTID": "64", "LINK": "https://ims.gov.il/he/node/234", "RADIUS": "300", "ENAME": "EZUZ", "NAME": "עזוז", "NUM": "78", "X": "149320", "Y": "522510", "LON": "34.4715", "LAT": "30.7911", "VARIABLES": "גשם, טמפ', רוח, לחות", "LOCATION": "קרקע", "ELEVATION": "335", "HEIGHT": "10", "AREA_STAT": "50.241071", "PERIM_STAT": "32.737904", "LIMITS": "מבנה בגובה 3 קומות (10 מטר)", "Shape_Leng": "1884.747268", "Shape_Area": "282618.3602", "YEARMONTH": "202109" }, "geometry": { "type": "Point", "coordinates": [ 34.47167, 30.79112 ] } },
{ "type": "Feature", "properties": { "FID": "64", "OBJECTID": "65", "LINK": "https://ims.gov.il/he/node/217", "RADIUS": "300", "ENAME": "EN GEDI", "NAME": "עין גדי", "NUM": "68", "X": "236830", "Y": "592030", "LON": "35.3871", "LAT": "31.42", "VARIABLES": "גשם, טמפ', רוח, לחות", "LOCATION": "קרקע", "ELEVATION": "-415", "HEIGHT": "10", "AREA_STAT": "33.878003", "PERIM_STAT": "23.529934", "LIMITS": "מבנה בגובה 3 קומות (10 מטר)", "Shape_Leng": "1884.747268", "Shape_Area": "282618.3602", "YEARMONTH": "202109" }, "geometry": { "type": "Point", "coordinates": [ 35.38716, 31.42008 ] } },
{ "type": "Feature", "properties": { "FID": "65", "OBJECTID": "66", "LINK": "https://ims.gov.il/he/node/161", "RADIUS": "50", "ENAME": "EN HAHORESH", "NAME": "עין החורש", "NUM": "40", "X": "194330", "Y": "699330", "LON": "34.9376", "LAT": "32.3877", "VARIABLES": "גשם, טמפ', לחות", "LOCATION": "קרקע", "ELEVATION": "15", "HEIGHT": "אין", "AREA_STAT": "313.549219", "PERIM_STAT": "69.77793", "LIMITS": "בנייה כלשהיא", "Shape_Leng": "313.9525883", "Shape_Area": "7833.326633", "YEARMONTH": "202109" }, "geometry": { "type": "Point", "coordinates": [ 34.93741, 32.38759 ] } },
{ "type": "Feature", "properties": { "FID": "66", "OBJECTID": "67", "LINK": "https://ims.gov.il/he/node/159", "RADIUS": "300", "ENAME": "EN HASHOFET", "NAME": "עין השופט", "NUM": "31", "X": "209310", "Y": "723170", "LON": "35.0964", "LAT": "32.6028", "VARIABLES": "גשם, טמפ', רוח, לחות, קרינה", "LOCATION": "קרקע", "ELEVATION": "265", "HEIGHT": "10", "AREA_STAT": "226.465828", "PERIM_STAT": "60.215996", "LIMITS": "מבנה בגובה 3 קומות (10 מטר)", "Shape_Leng": "1884.747268", "Shape_Area": "282618.3602", "YEARMONTH": "202109" }, "geometry": { "type": "Point", "coordinates": [ 35.09635, 32.6028 ] } },
{ "type": "Feature", "properties": { "FID": "67", "OBJECTID": "68", "LINK": "https://ims.gov.il/he/node/158", "RADIUS": "100", "ENAME": "EN KARMEL", "NAME": "עין כרמל", "NUM": "29", "X": "196480", "Y": "731830", "LON": "34.9594", "LAT": "32.6808", "VARIABLES": "גשם, טמפ', רוח, לחות", "LOCATION": "קרקע", "ELEVATION": "25", "HEIGHT": "10", "AREA_STAT": "195.782095", "PERIM_STAT": "59.133895", "LIMITS": "מבנה בגובה 3 קומות (10 מטר)", "Shape_Leng": "628.113568", "Shape_Area": "31374.94158", "YEARMONTH": "202109" }, "geometry": { "type": "Point", "coordinates": [ 34.95946, 32.68069 ] } },
{ "type": "Feature", "properties": { "FID": "68", "OBJECTID": "69", "LINK": "https://ims.gov.il/he/node/142", "RADIUS": "300", "ENAME": "AMMIAD", "NAME": "עמיעד", "NUM": "11", "X": "248320", "Y": "757840", "LON": "35.513", "LAT": "32.915", "VARIABLES": "גשם, טמפ', רוח, לחות", "LOCATION": "קרקע", "ELEVATION": "215", "HEIGHT": "10", "AREA_STAT": "175.630032", "PERIM_STAT": "53.904397", "LIMITS": "מבנה בגובה 3 קומות (10 מטר)", "Shape_Leng": "1884.747268", "Shape_Area": "282618.3602", "YEARMONTH": "202109" }, "geometry": { "type": "Point", "coordinates": [ 35.513, 32.91508 ] } },
{ "type": "Feature", "properties": { "FID": "69", "OBJECTID": "70", "LINK": "https://ims.gov.il/he/node/160", "RADIUS": "100", "ENAME": "AFULA NIR HAEMEQ", "NAME": "עפולה ניר העמק", "NUM": "32", "X": "226260", "Y": "722410", "LON": "35.2769", "LAT": "32.596", "VARIABLES": "גשם, טמפ', רוח, לחות", "LOCATION": "קרקע", "ELEVATION": "60", "HEIGHT": "10", "AREA_STAT": "223.331999", "PERIM_STAT": "59.801372", "LIMITS": "מבנה בגובה 3 קומות (10 מטר)", "Shape_Leng": "628.113568", "Shape_Area": "31374.94158", "YEARMONTH": "202109" }, "geometry": { "type": "Point", "coordinates": [ 35.27691, 32.59597 ] } },
{ "type": "Feature", "properties": { "FID": "70", "OBJECTID": "71", "LINK": "https://ims.gov.il/he/node/223", "RADIUS": "300", "ENAME": "ARAD", "NAME": "ערד", "NUM": "73", "X": "217650", "Y": "573140", "LON": "35.1855", "LAT": "31.25", "VARIABLES": "גשם, טמפ', רוח, לחות, קרינה", "LOCATION": "קרקע", "ELEVATION": "564", "HEIGHT": "10", "AREA_STAT": "217.088108", "PERIM_STAT": "66.755614", "LIMITS": "מבנה בגובה 3 קומות (10 מטר)", "Shape_Leng": "1884.747268", "Shape_Area": "282618.3602", "YEARMONTH": "202109" }, "geometry": { "type": "Point", "coordinates": [ 35.18548, 31.24984 ] } },
{ "type": "Feature", "properties": { "FID": "71", "OBJECTID": "72", "LINK": "https://ims.gov.il/he/node/237", "RADIUS": "300", "ENAME": "PARAN", "NAME": "פארן", "NUM": "82", "X": "214030", "Y": "475090", "LON": "35.1479", "LAT": "30.3655", "VARIABLES": "גשם, טמפ', רוח, לחות", "LOCATION": "קרקע", "ELEVATION": "100", "HEIGHT": "10", "AREA_STAT": "250.198244", "PERIM_STAT": "63.433455", "LIMITS": "מבנה בגובה 3 קומות (10 מטר)", "Shape_Leng": "1884.747268", "Shape_Area": "282618.3602", "YEARMONTH": "202109" }, "geometry": { "type": "Point", "coordinates": [ 35.14799, 30.36544 ] } },
{ "type": "Feature", "properties": { "FID": "72", "OBJECTID": "73", "LINK": "https://ims.gov.il/he/node/200", "RADIUS": "300", "ENAME": "ZOVA", "NAME": "צובה", "NUM": "55", "X": "212000", "Y": "632780", "LON": "35.1258", "LAT": "31.7878", "VARIABLES": "גשם, טמפ', רוח, לחות", "LOCATION": "קרקע", "ELEVATION": "710", "HEIGHT": "10", "AREA_STAT": "40.385868", "PERIM_STAT": "32.77818", "LIMITS": "מבנה בגובה 3 קומות (10 מטר)", "Shape_Leng": "1884.747268", "Shape_Area": "282618.3602", "YEARMONTH": "202109" }, "geometry": { "type": "Point", "coordinates": [ 35.12571, 31.7877 ] } },
{ "type": "Feature", "properties": { "FID": "73", "OBJECTID": "74", "LINK": "https://ims.gov.il/he/node/224", "RADIUS": "300", "ENAME": "ZOMET HANEGEV", "NAME": "צומת הנגב", "NUM": "75", "X": "185750", "Y": "553320", "LON": "34.8512", "LAT": "31.0706", "VARIABLES": "גשם, טמפ', רוח, לחות", "LOCATION": "קרקע", "ELEVATION": "360", "HEIGHT": "10", "AREA_STAT": "86.849552", "PERIM_STAT": "38.382513", "LIMITS": "מבנה בגובה 3 קומות (10 מטר)", "Shape_Leng": "1884.747268", "Shape_Area": "282618.3602", "YEARMONTH": "202109" }, "geometry": { "type": "Point", "coordinates": [ 34.85126, 31.0706 ] } },
{ "type": "Feature", "properties": { "FID": "74", "OBJECTID": "75", "LINK": "https://ims.gov.il/he/node/155", "RADIUS": "300", "ENAME": "ZEMAH", "NAME": "צמח", "NUM": "26", "X": "255030", "Y": "734270", "LON": "35.5839", "LAT": "32.7024", "VARIABLES": "גשם, טמפ', רוח, לחות, קרינה", "LOCATION": "קרקע", "ELEVATION": "-200", "HEIGHT": "18", "AREA_STAT": "187.877577", "PERIM_STAT": "55.069181", "LIMITS": "מבנה בגובה 3 קומות (10 מטר)", "Shape_Leng": "1884.747268", "Shape_Area": "282618.3602", "YEARMONTH": "202109" }, "geometry": { "type": "Point", "coordinates": [ 35.58382, 32.70236 ] } },
{ "type": "Feature", "properties": { "FID": "75", "OBJECTID": "76", "LINK": "https://ims.gov.il/he/node/140", "RADIUS": "50", "ENAME": "ZEFAT HAR KENAAN", "NAME": "צפת הר כנען", "NUM": "9", "X": "247723", "Y": "765043", "LON": "35.507", "LAT": "32.98", "VARIABLES": "גשם, טמפ',לחות,לחץ", "LOCATION": "קרקע", "ELEVATION": "936", "HEIGHT": " ", "AREA_STAT": "397", "PERIM_STAT": "87", "LIMITS": "בנייה כלשהיא", "Shape_Leng": "313.9525883", "Shape_Area": "7833.326633", "YEARMONTH": "202109" }, "geometry": { "type": "Point", "coordinates": [ 35.50684, 32.98005 ] } },
{ "type": "Feature", "properties": { "FID": "76", "OBJECTID": "77", "LINK": " ", "RADIUS": "300", "ENAME": "ZEFAT HAR KENAAN WIND", "NAME": "צפת הר כנען רוח", "NUM": "9a", "X": "247695", "Y": "765054", "LON": "35.506569", "LAT": "32.980148", "VARIABLES": " רוח", "LOCATION": "קרקע", "ELEVATION": "934", "HEIGHT": "30", "AREA_STAT": "33", "PERIM_STAT": "23", "LIMITS": "מבנה בגובה 3 קומות (10 מטר)", "Shape_Leng": "1884.747268", "Shape_Area": "282618.3602", "YEARMONTH": "202109" }, "geometry": { "type": "Point", "coordinates": [ 35.50654, 32.98015 ] } },
{ "type": "Feature", "properties": { "FID": "77", "OBJECTID": "78", "LINK": "https://ims.gov.il/he/node/189", "RADIUS": "50", "ENAME": "QEVUZAT YAVNE", "NAME": "קבוצת יבנה", "NUM": "52", "X": "174000", "Y": "636080", "LON": "34.7244", "LAT": "31.8166", "VARIABLES": "גשם, טמפ', לחות", "LOCATION": "קרקע", "ELEVATION": "50", "HEIGHT": "אין", "AREA_STAT": "66.27899", "PERIM_STAT": "32.573336", "LIMITS": "בנייה כלשהיא", "Shape_Leng": "313.9525883", "Shape_Area": "7833.326633", "YEARMONTH": "202109" }, "geometry": { "type": "Point", "coordinates": [ 34.72435, 31.81658 ] } },
{ "type": "Feature", "properties": { "FID": "78", "OBJECTID": "79", "LINK": "https://ims.gov.il/he/node/165", "RADIUS": "100", "ENAME": "QARNE SHOMERON", "NAME": "קרני שומרון", "NUM": "41", "X": "209220", "Y": "675740", "LON": "35.0959", "LAT": "32.1752", "VARIABLES": "גשם, טמפ', רוח, לחות", "LOCATION": " גג 3 קומות", "ELEVATION": "330", "HEIGHT": "10", "AREA_STAT": "55.030904", "PERIM_STAT": "29.831091", "LIMITS": "מבנה בגובה 3 קומות (10 מטר)", "Shape_Leng": "628.113568", "Shape_Area": "31374.94158", "YEARMONTH": "202109" }, "geometry": { "type": "Point", "coordinates": [ 35.09591, 32.1751 ] } },
{ "type": "Feature", "properties": { "FID": "79", "OBJECTID": "80", "LINK": "https://ims.gov.il/he/node/136", "RADIUS": "300", "ENAME": "ROSH HANIQRA", "NAME": "ראש הנקרה", "NUM": "5", "X": "210430", "Y": "776190", "LON": "35.1079", "LAT": "33.0808", "VARIABLES": "גשם, טמפ', רוח, לחות", "LOCATION": "קרקע", "ELEVATION": "10", "HEIGHT": "10", "AREA_STAT": "51.803276", "PERIM_STAT": "29.381084", "LIMITS": "מבנה בגובה 3 קומות (10 מטר)", "Shape_Leng": "1884.747268", "Shape_Area": "282618.3602", "YEARMONTH": "202109" }, "geometry": { "type": "Point", "coordinates": [ 35.10777, 33.08088 ] } },
{ "type": "Feature", "properties": { "FID": "80", "OBJECTID": "81", "LINK": "https://ims.gov.il/he/node/207", "RADIUS": "300", "ENAME": "ROSH ZURIM", "NAME": "ראש צורים", "NUM": "62", "X": "211770", "Y": "619110", "LON": "35.1233", "LAT": "31.6644", "VARIABLES": "גשם, טמפ', רוח, לחות", "LOCATION": "קרקע", "ELEVATION": "950", "HEIGHT": "6", "AREA_STAT": "54.670659", "PERIM_STAT": "30.440172", "LIMITS": "מבנה בגובה 3 קומות (10 מטר)", "Shape_Leng": "1884.747268", "Shape_Area": "282618.3602", "YEARMONTH": "202109" }, "geometry": { "type": "Point", "coordinates": [ 35.12339, 31.66442 ] } },
{ "type": "Feature", "properties": { "FID": "81", "OBJECTID": "82", "LINK": "https://ims.gov.il/he/node/139", "RADIUS": "300", "ENAME": "SHAVE ZIYYON", "NAME": "שבי ציון", "NUM": "8", "X": "208980", "Y": "765410", "LON": "35.0923", "LAT": "32.9836", "VARIABLES": "גשם, טמפ', רוח, לחות", "LOCATION": "קרקע", "ELEVATION": "5", "HEIGHT": "10", "AREA_STAT": "63.452282", "PERIM_STAT": "34.900914", "LIMITS": "מבנה בגובה 3 קומות (10 מטר)", "Shape_Leng": "1884.747268", "Shape_Area": "282618.3602", "YEARMONTH": "202109" }, "geometry": { "type": "Point", "coordinates": [ 35.09236, 32.98367 ] } },
{ "type": "Feature", "properties": { "FID": "82", "OBJECTID": "83", "LINK": "https://ims.gov.il/he/node/170", "RADIUS": "50", "ENAME": "SEDE ELIYYAHU", "NAME": "שדה אליהו", "NUM": "39", "X": "248250", "Y": "705030", "LON": "35.5106", "LAT": "32.439", "VARIABLES": "גשם, טמפ', לחות", "LOCATION": "קרקע", "ELEVATION": "-185", "HEIGHT": "אין", "AREA_STAT": "96.647724", "PERIM_STAT": "45.365089", "LIMITS": "בנייה כלשהיא", "Shape_Leng": "313.9525883", "Shape_Area": "7833.326633", "YEARMONTH": "202109" }, "geometry": { "type": "Point", "coordinates": [ 35.51062, 32.4389 ] } },
{ "type": "Feature", "properties": { "FID": "83", "OBJECTID": "84", "LINK": "https://ims.gov.il/he/node/233", "RADIUS": "300", "ENAME": "SEDE BOQER", "NAME": "שדה בוקר", "NUM": "77", "X": "180300", "Y": "531140", "LON": "34.795", "LAT": "30.8702", "VARIABLES": "גשם, טמפ', רוח, לחות, קרינה", "LOCATION": "קרקע", "ELEVATION": "475", "HEIGHT": "10", "AREA_STAT": "166.098659", "PERIM_STAT": "55.920871", "LIMITS": "מבנה בגובה 3 קומות (10 מטר)", "Shape_Leng": "1884.747268", "Shape_Area": "282618.3602", "YEARMONTH": "202109" }, "geometry": { "type": "Point", "coordinates": [ 34.795, 30.87038 ] } },
{ "type": "Feature", "properties": { "FID": "84", "OBJECTID": "85", "LINK": "https://ims.gov.il/he/node/219", "RADIUS": "300", "ENAME": "SHANI", "NAME": "שני", "NUM": "70", "X": "206300", "Y": "585000", "LON": "35.0662", "LAT": "31.3568", "VARIABLES": "גשם, טמפ', רוח, לחות", "LOCATION": "קרקע", "ELEVATION": "700", "HEIGHT": "19", "AREA_STAT": "140.366954", "PERIM_STAT": "47.685011", "LIMITS": "מבנה בגובה 3 קומות (10 מטר)", "Shape_Leng": "1884.747268", "Shape_Area": "282618.3602", "YEARMONTH": "202109" }, "geometry": { "type": "Point", "coordinates": [ 35.06617, 31.35674 ] } },
{ "type": "Feature", "properties": { "FID": "85", "OBJECTID": "86", "LINK": "https://ims.gov.il/he/node/154", "RADIUS": "100", "ENAME": "TAVOR KADOORIE", "NAME": "תבור  כדורי", "NUM": "25", "X": "238440", "Y": "734540", "LON": "35.4069", "LAT": "32.7053", "VARIABLES": "גשם, טמפ', רוח, לחות, קרינה", "LOCATION": "קרקע", "ELEVATION": "145", "HEIGHT": "10", "AREA_STAT": "108.452439", "PERIM_STAT": "41.677194", "LIMITS": "מבנה בגובה 3 קומות (10 מטר)", "Shape_Leng": "628.113568", "Shape_Area": "31374.94158", "YEARMONTH": "202109" }, "geometry": { "type": "Point", "coordinates": [ 35.4069, 32.70521 ] } },
{ "type": "Feature", "properties": { "FID": "86", "OBJECTID": "87", "LINK": "https://ims.gov.il/he/node/183", "RADIUS": "100", "ENAME": "TEL AVIV COAST", "NAME": "תל אביב חוף", "NUM": "46", "X": "177380", "Y": "662840", "LON": "34.7588", "LAT": "32.058", "VARIABLES": "גשם, טמפ', רוח, לחות", "LOCATION": "גג 2 קומות", "ELEVATION": "10", "HEIGHT": "10", "AREA_STAT": "103.078291", "PERIM_STAT": "40.971834", "LIMITS": "מבנה בגובה 3 קומות (10 מטר)", "Shape_Leng": "628.113568", "Shape_Area": "31374.94158", "YEARMONTH": "202109" }, "geometry": { "type": "Point", "coordinates": [ 34.75888, 32.05803 ] } },
{ "type": "Feature", "properties": { "FID": "87", "OBJECTID": "88", "LINK": "https://ims.gov.il/he/node/164", "RADIUS": "300", "ENAME": "TEL YOSEF", "NAME": "תל יוסף", "NUM": "35", "X": "237080", "Y": "716830", "LON": "35.3945", "LAT": "32.5462", "VARIABLES": "גשם, טמפ', רוח, לחות", "LOCATION": "קרקע", "ELEVATION": "-65", "HEIGHT": "10", "AREA_STAT": "56.78479", "PERIM_STAT": "30.160234", "LIMITS": "מבנה בגובה 3 קומות (10 מטר)", "Shape_Leng": "1884.747268", "Shape_Area": "282618.3602", "YEARMONTH": "202109" }, "geometry": { "type": "Point", "coordinates": [ 35.39207, 32.54554 ] } }
]
}
